{"type": "FeatureCollection", "features": [ {"type": "Feature", "properties": {"norad_id": 66865, "name": "STARLINK-36117", "group": "last-30-days", "lat": 35.008116333621146, "lon": -150.07828535784424, "alt_km": 339.88476282211104, "timestamp": "2025-12-19T20:42:58.814109+00:00", "meta": {"OBJECT_NAME": "STARLINK-36117", "OBJECT_ID": "2025-281T", "EPOCH": "2025-12-19T06:00:02.000160", "MEAN_MOTION": 15.7506425, "ECCENTRICITY": 0.00015316, "INCLINATION": 43.0007, "RA_OF_ASC_NODE": 82.375, "ARG_OF_PERICENTER": 270.8061, "MEAN_ANOMALY": 330.9018, "EPHEMERIS_TYPE": 0, "CLASSIFICATION_TYPE": "U", "NORAD_CAT_ID": 66865, "ELEMENT_SET_NO": 999, "REV_AT_EPOCH": 244, "BSTAR": -0.00021001854, "MEAN_MOTION_DOT": -0.00032649, "MEAN_MOTION_DDOT": 0}, "tle": {"line1": "1 66865U 25281T   25353.25002315 -.00032649  00000+0 -21002-3 0  9998", "line2": "2 66865  43.0007  82.3750 0001531 270.8061 330.9018 15.75064250  2445"}}, "geometry": {"type": "Point", "coordinates": [-150.07828535784424, 35.008116333621146]}}, {"type": "Feature", "properties": {"norad_id": 66866, "name": "STARLINK-36126", "group": "last-30-days", "lat": 34.12797563958379, "lon": -148.01348631461082, "alt_km": 339.96295083284986, "timestamp": "2025-12-19T20:42:58.814121+00:00", "meta": {"OBJECT_NAME": "STARLINK-36126", "OBJECT_ID": "2025-281U", "EPOCH": "2025-12-19T06:00:02.000160", "MEAN_MOTION": 15.75051867, "ECCENTRICITY": 0.00016383, "INCLINATION": 43.0007, "RA_OF_ASC_NODE": 82.37, "ARG_OF_PERICENTER": 263.0086, "MEAN_ANOMALY": 340.6231, "EPHEMERIS_TYPE": 0, "CLASSIFICATION_TYPE": "U", "NORAD_CAT_ID": 66866, "ELEMENT_SET_NO": 999, "REV_AT_EPOCH": 247, "BSTAR": -0.00010126229, "MEAN_MOTION_DOT": -0.00016012, "MEAN_MOTION_DDOT": 0}, "tle": {"line1": "1 66866U 25281U   25353.25002315 -.00016012  00000+0 -10126-3 0  9990", "line2": "2 66866  43.0007  82.3700 0001638 263.0086 340.6231 15.75051867  2478"}}, "geometry": {"type": "Point", "coordinates": [-148.01348631461082, 34.12797563958379]}}, {"type": "Feature", "properties": {"norad_id": 66867, "name": "STARLINK-36101", "group": "last-30-days", "lat": 33.219818836951724, "lon": -146.00502688934077, "alt_km": 340.1481656587803, "timestamp": "2025-12-19T20:42:58.814132+00:00", "meta": {"OBJECT_NAME": "STARLINK-36101", "OBJECT_ID": "2025-281V", "EPOCH": "2025-12-19T06:00:02.000160", "MEAN_MOTION": 15.75078597, "ECCENTRICITY": 0.00014812, "INCLINATION": 43.0007, "RA_OF_ASC_NODE": 82.365, "ARG_OF_PERICENTER": 265.7412, "MEAN_ANOMALY": 339.8037, "EPHEMERIS_TYPE": 0, "CLASSIFICATION_TYPE": "U", "NORAD_CAT_ID": 66867, "ELEMENT_SET_NO": 999, "REV_AT_EPOCH": 228, "BSTAR": -0.00043743337, "MEAN_MOTION_DOT": -0.00067253, "MEAN_MOTION_DDOT": 0}, "tle": {"line1": "1 66867U 25281V   25353.25002315 -.00067253  00000+0 -43743-3 0  9995", "line2": "2 66867  43.0007  82.3650 0001481 265.7412 339.8037 15.75078597  2283"}}, "geometry": {"type": "Point", "coordinates": [-146.00502688934077, 33.219818836951724]}}, {"type": "Feature", "properties": {"norad_id": 66868, "name": "STARLINK-36108", "group": "last-30-days", "lat": 32.27330990970728, "lon": -144.02521010401594, "alt_km": 340.2296882973451, "timestamp": "2025-12-19T20:42:58.814162+00:00", "meta": {"OBJECT_NAME": "STARLINK-36108", "OBJECT_ID": "2025-281W", "EPOCH": "2025-12-19T06:00:02.000160", "MEAN_MOTION": 15.75063571, "ECCENTRICITY": 0.00015469, "INCLINATION": 43.0007, "RA_OF_ASC_NODE": 82.36, "ARG_OF_PERICENTER": 263.1383, "MEAN_ANOMALY": 344.3221, "EPHEMERIS_TYPE": 0, "CLASSIFICATION_TYPE": "U", "NORAD_CAT_ID": 66868, "ELEMENT_SET_NO": 999, "REV_AT_EPOCH": 228, "BSTAR": -0.000264751, "MEAN_MOTION_DOT": -0.00040992, "MEAN_MOTION_DDOT": 0}, "tle": {"line1": "1 66868U 25281W   25353.25002315 -.00040992  00000+0 -26475-3 0  9990", "line2": "2 66868  43.0007  82.3600 0001546 263.1383 344.3221 15.75063571  2282"}}, "geometry": {"type": "Point", "coordinates": [-144.02521010401594, 32.27330990970728]}}, {"type": "Feature", "properties": {"norad_id": 66869, "name": "STARLINK-36092", "group": "last-30-days", "lat": 31.294845668852233, "lon": -142.08407573799656, "alt_km": 340.22928092092116, "timestamp": "2025-12-19T20:42:58.814173+00:00", "meta": {"OBJECT_NAME": "STARLINK-36092", "OBJECT_ID": "2025-281X", "EPOCH": "2025-12-19T06:00:02.000160", "MEAN_MOTION": 15.75047343, "ECCENTRICITY": 0.00015104, "INCLINATION": 43.0007, "RA_OF_ASC_NODE": 82.3549, "ARG_OF_PERICENTER": 256.7764, "MEAN_ANOMALY": 352.6107, "EPHEMERIS_TYPE": 0, "CLASSIFICATION_TYPE": "U", "NORAD_CAT_ID": 66869, "ELEMENT_SET_NO": 999, "REV_AT_EPOCH": 247, "BSTAR": -0.00011850243, "MEAN_MOTION_DOT": -0.00018647, "MEAN_MOTION_DDOT": 0}, "tle": {"line1": "1 66869U 25281X   25353.25002315 -.00018647  00000+0 -11850-3 0  9994", "line2": "2 66869  43.0007  82.3549 0001510 256.7764 352.6107 15.75047343  2472"}}, "geometry": {"type": "Point", "coordinates": [-142.08407573799656, 31.294845668852233]}}, {"type": "Feature", "properties": {"norad_id": 66870, "name": "STARLINK-36114", "group": "last-30-days", "lat": 30.28002668821404, "lon": -140.16849882183004, "alt_km": 340.4008444850315, "timestamp": "2025-12-19T20:42:58.814183+00:00", "meta": {"OBJECT_NAME": "STARLINK-36114", "OBJECT_ID": "2025-281Y", "EPOCH": "2025-12-19T06:00:02.000160", "MEAN_MOTION": 15.75035081, "ECCENTRICITY": 0.00015232, "INCLINATION": 43.0013, "RA_OF_ASC_NODE": 82.3498, "ARG_OF_PERICENTER": 266.0768, "MEAN_ANOMALY": 345.2235, "EPHEMERIS_TYPE": 0, "CLASSIFICATION_TYPE": "U", "NORAD_CAT_ID": 66870, "ELEMENT_SET_NO": 999, "REV_AT_EPOCH": 234, "BSTAR": 0.00010923217, "MEAN_MOTION_DOT": 0.00016331, "MEAN_MOTION_DDOT": 0}, "tle": {"line1": "1 66870U 25281Y   25353.25002315  .00016331  00000+0  10923-3 0  9992", "line2": "2 66870  43.0013  82.3498 0001523 266.0768 345.2235 15.75035081  2348"}}, "geometry": {"type": "Point", "coordinates": [-140.16849882183004, 30.28002668821404]}}, {"type": "Feature", "properties": {"norad_id": 66871, "name": "STARLINK-36095", "group": "last-30-days", "lat": 29.25668001306249, "lon": -138.32790037282868, "alt_km": 340.6747349580901, "timestamp": "2025-12-19T20:42:58.814193+00:00", "meta": {"OBJECT_NAME": "STARLINK-36095", "OBJECT_ID": "2025-281Z", "EPOCH": "2025-12-19T06:00:02.000160", "MEAN_MOTION": 15.75067175, "ECCENTRICITY": 0.00015047, "INCLINATION": 43.0007, "RA_OF_ASC_NODE": 82.3448, "ARG_OF_PERICENTER": 266.6272, "MEAN_ANOMALY": 346.5841, "EPHEMERIS_TYPE": 0, "CLASSIFICATION_TYPE": "U", "NORAD_CAT_ID": 66871, "ELEMENT_SET_NO": 999, "REV_AT_EPOCH": 247, "BSTAR": -0.00028942181, "MEAN_MOTION_DOT": -0.00044754, "MEAN_MOTION_DDOT": 0}, "tle": {"line1": "1 66871U 25281Z   25353.25002315 -.00044754  00000+0 -28942-3 0  9995", "line2": "2 66871  43.0007  82.3448 0001504 266.6272 346.5841 15.75067175  2472"}}, "geometry": {"type": "Point", "coordinates": [-138.32790037282868, 29.25668001306249]}}, {"type": "Feature", "properties": {"norad_id": 66872, "name": "STARLINK-36082", "group": "last-30-days", "lat": 28.195908170771727, "lon": -136.50167596036096, "alt_km": 340.6870601780174, "timestamp": "2025-12-19T20:42:58.814203+00:00", "meta": {"OBJECT_NAME": "STARLINK-36082", "OBJECT_ID": "2025-281AA", "EPOCH": "2025-12-19T06:00:02.000160", "MEAN_MOTION": 15.75071889, "ECCENTRICITY": 0.00016125, "INCLINATION": 43.0007, "RA_OF_ASC_NODE": 82.3403, "ARG_OF_PERICENTER": 255.8434, "MEAN_ANOMALY": 359.2776, "EPHEMERIS_TYPE": 0, "CLASSIFICATION_TYPE": "U", "NORAD_CAT_ID": 66872, "ELEMENT_SET_NO": 999, "REV_AT_EPOCH": 234, "BSTAR": -0.00026290822, "MEAN_MOTION_DOT": -0.00040726, "MEAN_MOTION_DDOT": 0}, "tle": {"line1": "1 66872U 25281AA  25353.25002315 -.00040726  00000+0 -26291-3 0  9996", "line2": "2 66872  43.0007  82.3403 0001612 255.8434 359.2776 15.75071889  2345"}}, "geometry": {"type": "Point", "coordinates": [-136.50167596036096, 28.195908170771727]}}, {"type": "Feature", "properties": {"norad_id": 66873, "name": "STARLINK-36128", "group": "last-30-days", "lat": 24.89113261682081, "lon": -131.25877622248822, "alt_km": 341.24986848267963, "timestamp": "2025-12-19T20:42:58.814216+00:00", "meta": {"OBJECT_NAME": "STARLINK-36128", "OBJECT_ID": "2025-281AB", "EPOCH": "2025-12-19T06:00:02.000160", "MEAN_MOTION": 15.75048816, "ECCENTRICITY": 0.00017942, "INCLINATION": 43.0005, "RA_OF_ASC_NODE": 82.3252, "ARG_OF_PERICENTER": 258.9274, "MEAN_ANOMALY": 1.9657, "EPHEMERIS_TYPE": 0, "CLASSIFICATION_TYPE": "U", "NORAD_CAT_ID": 66873, "ELEMENT_SET_NO": 999, "REV_AT_EPOCH": 247, "BSTAR": -0.00015389402, "MEAN_MOTION_DOT": -0.00024061, "MEAN_MOTION_DDOT": 0}, "tle": {"line1": "1 66873U 25281AB  25353.25002315 -.00024061  00000+0 -15389-3 0  9997", "line2": "2 66873  43.0005  82.3252 0001794 258.9274   1.9657 15.75048816  2470"}}, "geometry": {"type": "Point", "coordinates": [-131.25877622248822, 24.89113261682081]}}, {"type": "Feature", "properties": {"norad_id": 66874, "name": "STARLINK-36129", "group": "last-30-days", "lat": 27.125992124557058, "lon": -134.7360392144231, "alt_km": 341.096053041706, "timestamp": "2025-12-19T20:42:58.814228+00:00", "meta": {"OBJECT_NAME": "STARLINK-36129", "OBJECT_ID": "2025-281AC", "EPOCH": "2025-12-19T06:00:02.000160", "MEAN_MOTION": 15.75130559, "ECCENTRICITY": 0.00016475, "INCLINATION": 43.001, "RA_OF_ASC_NODE": 82.335, "ARG_OF_PERICENTER": 258.5939, "MEAN_ANOMALY": 358.4347, "EPHEMERIS_TYPE": 0, "CLASSIFICATION_TYPE": "U", "NORAD_CAT_ID": 66874, "ELEMENT_SET_NO": 999, "REV_AT_EPOCH": 247, "BSTAR": -0.00093576197, "MEAN_MOTION_DOT": -0.00142391, "MEAN_MOTION_DDOT": 0}, "tle": {"line1": "1 66874U 25281AC  25353.25002315 -.00142391  00000+0 -93576-3 0  9999", "line2": "2 66874  43.0010  82.3350 0001647 258.5939 358.4347 15.75130559  2479"}}, "geometry": {"type": "Point", "coordinates": [-134.7360392144231, 27.125992124557058]}}]}